STARLINK-36377          
1 67812U 26032R   26073.47892256  .00151476  00000+0  99746-3 0  9999
2 67812  97.2837 260.2974 0001459  25.3819 334.7517 15.75214456  5543
STARLINK-36732          
1 67813U 26032S   26073.48386245  .00228934  00000+0  14919-2 0  9999
2 67813  97.2837 260.2895 0000243  10.8364 349.2907 15.75236411  5549
STARLINK-36767          
1 67814U 26032T   26073.50362285  .00157199  00000+0  10339-2 0  9997
2 67814  97.2837 260.2620 0001469  55.3867 304.7536 15.75225365  5549
STARLINK-36797          
1 67815U 26032U   26073.49480071  .00169854  00000+0  11141-2 0  9993
2 67815  97.2840 260.2756 0001629  74.4129 285.7316 15.75252331  5542
STARLINK-36343          
1 67816U 26032V   26073.47504244  .00323052  00000+0  20755-2 0  9994
2 67816  97.2835 260.3011 0001823 103.6516 256.4952 15.75305412  5543
STARLINK-36756          
1 67817U 26032W   26073.48598153  .00150920  00000+0  99388-3 0  9999
2 67817  97.2835 260.2862 0001732  90.4406 269.7058 15.75214043  5539
STARLINK-36346          
1 67818U 26032X   26073.47080647  .00497346  00000+0  31184-2 0  9998
2 67818  97.2836 260.3077 0001831 121.4599 238.6846 15.75386678  5543
STARLINK-36788          
1 67819U 26032Y   26073.49691936  .00157531  00000+0  10352-2 0  9993
2 67819  97.2839 260.2715 0001673  65.2164 294.9275 15.75245403  5543
STARLINK-36353          
1 67820U 26032Z   26073.49303427  .00183290  00000+0  11999-2 0  9999
2 67820  97.2837 260.2766 0001194  74.6937 285.4460 15.75260409  5543
STARLINK-36644          
1 67821U 26033A   26073.58335648 -.01913998  00000+0 -18161-1 0  9997
2 67821  42.9992 241.7180 0001416 267.3811 178.6965 15.69012429  5459
STARLINK-36643          
1 67822U 26033B   26073.58335648 -.01941259  00000+0 -22242-1 0  9994
2 67822  42.9994 241.8577 0001714 272.4690 117.4367 15.64451142  5457
STARLINK-36646          
1 67823U 26033C   26073.58335648 -.01947953  00000+0 -19725-1 0  9994
2 67823  42.9991 241.7417 0001579 275.6874 160.5777 15.67499446  5451
STARLINK-36647          
1 67824U 26033D   26073.58335648 -.01947482  00000+0 -21295-1 0  9997
2 67824  42.9992 241.7940 0001638 274.2372 141.2431 15.65619239  5453
STARLINK-36648          
1 67825U 26033E   26073.58335648 -.01909693  00000+0 -13699-1 0  9999
2 67825  42.9989 241.5319 0001304 272.7823 247.3558 15.76017033  5456
STARLINK-35865          
1 67826U 26033F   26073.58335648 -.01948228  00000+0 -18150-1 0  9994
2 67826  42.9988 241.6505 0001462 277.2877 195.1837 15.69504221  5450
STARLINK-36289          
1 67827U 26033G   26073.58335648 -.01942382  00000+0 -21604-1 0  9998
2 67827  42.9990 241.7766 0001603 274.8675 147.3471 15.65190983  5455
