[{"OBJECT_NAME":"STARLINK-36377","OBJECT_ID":"2026-032R","EPOCH":"2026-03-14T11:29:38.909184","MEAN_MOTION":15.75214456,"ECCENTRICITY":0.00014597,"INCLINATION":97.2837,"RA_OF_ASC_NODE":260.2974,"ARG_OF_PERICENTER":25.3819,"MEAN_ANOMALY":334.7517,"EPHEMERIS_TYPE":0,"CLASSIFICATION_TYPE":"U","NORAD_CAT_ID":67812,"ELEMENT_SET_NO":999,"REV_AT_EPOCH":554,"BSTAR":0.00099746152,"MEAN_MOTION_DOT":0.00151476,"MEAN_MOTION_DDOT":0},{"OBJECT_NAME":"STARLINK-36732","OBJECT_ID":"2026-032S","EPOCH":"2026-03-14T11:36:45.715680","MEAN_MOTION":15.75236411,"ECCENTRICITY":2.43e-5,"INCLINATION":97.2837,"RA_OF_ASC_NODE":260.2895,"ARG_OF_PERICENTER":10.8364,"MEAN_ANOMALY":349.2907,"EPHEMERIS_TYPE":0,"CLASSIFICATION_TYPE":"U","NORAD_CAT_ID":67813,"ELEMENT_SET_NO":999,"REV_AT_EPOCH":554,"BSTAR":0.0014919116,"MEAN_MOTION_DOT":0.00228934,"MEAN_MOTION_DDOT":0},{"OBJECT_NAME":"STARLINK-36767","OBJECT_ID":"2026-032T","EPOCH":"2026-03-14T12:05:13.014240","MEAN_MOTION":15.75225365,"ECCENTRICITY":0.0001469,"INCLINATION":97.2837,"RA_OF_ASC_NODE":260.262,"ARG_OF_PERICENTER":55.3867,"MEAN_ANOMALY":304.7536,"EPHEMERIS_TYPE":0,"CLASSIFICATION_TYPE":"U","NORAD_CAT_ID":67814,"ELEMENT_SET_NO":999,"REV_AT_EPOCH":554,"BSTAR":0.0010339275,"MEAN_MOTION_DOT":0.00157199,"MEAN_MOTION_DDOT":0},{"OBJECT_NAME":"STARLINK-36797","OBJECT_ID":"2026-032U","EPOCH":"2026-03-14T11:52:30.781344","MEAN_MOTION":15.75252331,"ECCENTRICITY":0.00016299,"INCLINATION":97.284,"RA_OF_ASC_NODE":260.2756,"ARG_OF_PERICENTER":74.4129,"MEAN_ANOMALY":285.7316,"EPHEMERIS_TYPE":0,"CLASSIFICATION_TYPE":"U","NORAD_CAT_ID":67815,"ELEMENT_SET_NO":999,"REV_AT_EPOCH":554,"BSTAR":0.0011141273,"MEAN_MOTION_DOT":0.00169854,"MEAN_MOTION_DDOT":0},{"OBJECT_NAME":"STARLINK-36343","OBJECT_ID":"2026-032V","EPOCH":"2026-03-14T11:24:03.666816","MEAN_MOTION":15.75305412,"ECCENTRICITY":0.0001823,"INCLINATION":97.2835,"RA_OF_ASC_NODE":260.3011,"ARG_OF_PERICENTER":103.6516,"MEAN_ANOMALY":256.4952,"EPHEMERIS_TYPE":0,"CLASSIFICATION_TYPE":"U","NORAD_CAT_ID":67816,"ELEMENT_SET_NO":999,"REV_AT_EPOCH":554,"BSTAR":0.0020754805,"MEAN_MOTION_DOT":0.00323052,"MEAN_MOTION_DDOT":0},{"OBJECT_NAME":"STARLINK-36756","OBJECT_ID":"2026-032W","EPOCH":"2026-03-14T11:39:48.804192","MEAN_MOTION":15.75214043,"ECCENTRICITY":0.00017325,"INCLINATION":97.2835,"RA_OF_ASC_NODE":260.2862,"ARG_OF_PERICENTER":90.4406,"MEAN_ANOMALY":269.7058,"EPHEMERIS_TYPE":0,"CLASSIFICATION_TYPE":"U","NORAD_CAT_ID":67817,"ELEMENT_SET_NO":999,"REV_AT_EPOCH":553,"BSTAR":0.00099387623,"MEAN_MOTION_DOT":0.0015092,"MEAN_MOTION_DDOT":0},{"OBJECT_NAME":"STARLINK-36346","OBJECT_ID":"2026-032X","EPOCH":"2026-03-14T11:17:57.679008","MEAN_MOTION":15.75386678,"ECCENTRICITY":0.00018313,"INCLINATION":97.2836,"RA_OF_ASC_NODE":260.3077,"ARG_OF_PERICENTER":121.4599,"MEAN_ANOMALY":238.6846,"EPHEMERIS_TYPE":0,"CLASSIFICATION_TYPE":"U","NORAD_CAT_ID":67818,"ELEMENT_SET_NO":999,"REV_AT_EPOCH":554,"BSTAR":0.0031184042,"MEAN_MOTION_DOT":0.00497346,"MEAN_MOTION_DDOT":0},{"OBJECT_NAME":"STARLINK-36788","OBJECT_ID":"2026-032Y","EPOCH":"2026-03-14T11:55:33.832704","MEAN_MOTION":15.75245403,"ECCENTRICITY":0.00016736,"INCLINATION":97.2839,"RA_OF_ASC_NODE":260.2715,"ARG_OF_PERICENTER":65.2164,"MEAN_ANOMALY":294.9275,"EPHEMERIS_TYPE":0,"CLASSIFICATION_TYPE":"U","NORAD_CAT_ID":67819,"ELEMENT_SET_NO":999,"REV_AT_EPOCH":554,"BSTAR":0.0010351683,"MEAN_MOTION_DOT":0.00157531,"MEAN_MOTION_DDOT":0},{"OBJECT_NAME":"STARLINK-36353","OBJECT_ID":"2026-032Z","EPOCH":"2026-03-14T11:49:58.160928","MEAN_MOTION":15.75260409,"ECCENTRICITY":0.0001194,"INCLINATION":97.2837,"RA_OF_ASC_NODE":260.2766,"ARG_OF_PERICENTER":74.6937,"MEAN_ANOMALY":285.446,"EPHEMERIS_TYPE":0,"CLASSIFICATION_TYPE":"U","NORAD_CAT_ID":67820,"ELEMENT_SET_NO":999,"REV_AT_EPOCH":554,"BSTAR":0.0011998833,"MEAN_MOTION_DOT":0.0018329,"MEAN_MOTION_DDOT":0},{"OBJECT_NAME":"STARLINK-36644","OBJECT_ID":"2026-033A","EPOCH":"2026-03-14T14:00:01.999872","MEAN_MOTION":15.69012429,"ECCENTRICITY":0.00014166,"INCLINATION":42.9992,"RA_OF_ASC_NODE":241.718,"ARG_OF_PERICENTER":267.3811,"MEAN_ANOMALY":178.6965,"EPHEMERIS_TYPE":0,"CLASSIFICATION_TYPE":"U","NORAD_CAT_ID":67821,"ELEMENT_SET_NO":999,"REV_AT_EPOCH":545,"BSTAR":-0.018160741,"MEAN_MOTION_DOT":-0.01913998,"MEAN_MOTION_DDOT":0},{"OBJECT_NAME":"STARLINK-36643","OBJECT_ID":"2026-033B","EPOCH":"2026-03-14T14:00:01.999872","MEAN_MOTION":15.64451142,"ECCENTRICITY":0.00017149,"INCLINATION":42.9994,"RA_OF_ASC_NODE":241.8577,"ARG_OF_PERICENTER":272.469,"MEAN_ANOMALY":117.4367,"EPHEMERIS_TYPE":0,"CLASSIFICATION_TYPE":"U","NORAD_CAT_ID":67822,"ELEMENT_SET_NO":999,"REV_AT_EPOCH":545,"BSTAR":-0.022241602,"MEAN_MOTION_DOT":-0.01941259,"MEAN_MOTION_DDOT":0},{"OBJECT_NAME":"STARLINK-36646","OBJECT_ID":"2026-033C","EPOCH":"2026-03-14T14:00:01.999872","MEAN_MOTION":15.67499446,"ECCENTRICITY":0.00015796,"INCLINATION":42.9991,"RA_OF_ASC_NODE":241.7417,"ARG_OF_PERICENTER":275.6874,"MEAN_ANOMALY":160.5777,"EPHEMERIS_TYPE":0,"CLASSIFICATION_TYPE":"U","NORAD_CAT_ID":67823,"ELEMENT_SET_NO":999,"REV_AT_EPOCH":545,"BSTAR":-0.019724644,"MEAN_MOTION_DOT":-0.01947953,"MEAN_MOTION_DDOT":0},{"OBJECT_NAME":"STARLINK-36647","OBJECT_ID":"2026-033D","EPOCH":"2026-03-14T14:00:01.999872","MEAN_MOTION":15.65619239,"ECCENTRICITY":0.00016382,"INCLINATION":42.9992,"RA_OF_ASC_NODE":241.794,"ARG_OF_PERICENTER":274.2372,"MEAN_ANOMALY":141.2431,"EPHEMERIS_TYPE":0,"CLASSIFICATION_TYPE":"U","NORAD_CAT_ID":67824,"ELEMENT_SET_NO":999,"REV_AT_EPOCH":545,"BSTAR":-0.021294968,"MEAN_MOTION_DOT":-0.01947482,"MEAN_MOTION_DDOT":0},{"OBJECT_NAME":"STARLINK-36648","OBJECT_ID":"2026-033E","EPOCH":"2026-03-14T14:00:01.999872","MEAN_MOTION":15.76017033,"ECCENTRICITY":0.00013049,"INCLINATION":42.9989,"RA_OF_ASC_NODE":241.5319,"ARG_OF_PERICENTER":272.7823,"MEAN_ANOMALY":247.3558,"EPHEMERIS_TYPE":0,"CLASSIFICATION_TYPE":"U","NORAD_CAT_ID":67825,"ELEMENT_SET_NO":999,"REV_AT_EPOCH":545,"BSTAR":-0.013698604,"MEAN_MOTION_DOT":-0.01909693,"MEAN_MOTION_DDOT":0},{"OBJECT_NAME":"STARLINK-35865","OBJECT_ID":"2026-033F","EPOCH":"2026-03-14T14:00:01.999872","MEAN_MOTION":15.69504221,"ECCENTRICITY":0.00014628,"INCLINATION":42.9988,"RA_OF_ASC_NODE":241.6505,"ARG_OF_PERICENTER":277.2877,"MEAN_ANOMALY":195.1837,"EPHEMERIS_TYPE":0,"CLASSIFICATION_TYPE":"U","NORAD_CAT_ID":67826,"ELEMENT_SET_NO":999,"REV_AT_EPOCH":545,"BSTAR":-0.018150222,"MEAN_MOTION_DOT":-0.01948228,"MEAN_MOTION_DDOT":0},{"OBJECT_NAME":"STARLINK-36289","OBJECT_ID":"2026-033G","EPOCH":"2026-03-14T14:00:01.999872","MEAN_MOTION":15.65190983,"ECCENTRICITY":0.00016035,"INCLINATION":42.999,"RA_OF_ASC_NODE":241.7766,"ARG_OF_PERICENTER":274.8675,"MEAN_ANOMALY":147.3471,"EPHEMERIS_TYPE":0,"CLASSIFICATION_TYPE":"U","NORAD_CAT_ID":67827,"ELEMENT_SET_NO":999,"REV_AT_EPOCH":545,"BSTAR":-0.021603526,"MEAN_MOTION_DOT":-0.01942382,"MEAN_MOTION_DDOT":0}]
